[{"OBJECT_ID":"2009-054A","OBJECT_NAME":"AMAZONAS 2","NORAD_CAT_ID":"35942","OBJECT_TYPE":"PAYLOAD","PERIOD":"1436.121","INCLINATION":"0.021","APOGEE":"35810.975","PERIGEE":"35763.168","ECCENTRICITY":"0.0005669","MEAN_MOTION":"1.00270091","TLE_LINE1":"1 35942U 09054A   16238.77812355 -.00000310  00000-0  00000+0 0  9993","TLE_LINE2":"2 35942   0.0210 163.7689 0005669 359.1854  30.6097  1.00270091 25269","LAUNCH_DATE":"2009-09-30","LAUNCH_SITE":"FRENCH GUIANA","OWNER":"SPAIN","ORBIT_TYPE":"Geosynchronous","OPERATIONAL_STATUS":"Operational","satInfo":{"lng":-71.8019533225457,"lat":0.13348385937520127,"elevation":-8.437682566424092,"azimuth":26.8019533225457,"range":42654.9976653158,"height":35815.27916973954,"velocity":3.07306387891042},"x":-289,"y":-90,"dx":0.9597256302870049,"dy":-2.9193575180909526},{"OBJECT_ID":"2009-054B","OBJECT_NAME":"COMSATBW-1","NORAD_CAT_ID":"35943","OBJECT_TYPE":"PAYLOAD","PERIOD":"1436.087","INCLINATION":"0.056","APOGEE":"35797.183","PERIGEE":"35775.654","ECCENTRICITY":"0.0002553","MEAN_MOTION":"1.0027242","TLE_LINE1":"1 35943U 09054B   16238.86239844 -.00000003 +00000-0 +00000-0 0  9990","TLE_LINE2":"2 35943 000.0560 099.6855 0002553 080.8352 167.4652 01.00272420025387","LAUNCH_DATE":"2009-09-30","LAUNCH_SITE":"FRENCH GUIANA","OWNER":"GERMANY","ORBIT_TYPE":"Geosynchronous","OPERATIONAL_STATUS":"Operational","satInfo":{"lng":87.31394736217574,"lat":1.3407399938270101,"elevation":-7.2621408807192305,"azimuth":227.68605263782425,"range":42493.419633203426,"height":35785.94011950088,"velocity":3.0747611895106237},"x":300,"y":-14,"dx":0.14409343194399366,"dy":3.0713829874164813},{"OBJECT_ID":"2009-058A","OBJECT_NAME":"NSS 12","NORAD_CAT_ID":"36032","OBJECT_TYPE":"PAYLOAD","PERIOD":"1436.102","INCLINATION":"0.0313","APOGEE":"35798.099","PERIGEE":"35775.313","ECCENTRICITY":"0.0002702","MEAN_MOTION":"1.00271395","TLE_LINE1":"1 36032U 09058A   16238.91228599  .00000044  00000-0  00000+0 0  9998","TLE_LINE2":"2 36032   0.0313 284.2319 0002702 228.4931 207.2825  1.00271395 25025","LAUNCH_DATE":"2009-10-29","LAUNCH_SITE":"FRENCH GUIANA","OWNER":"SOCIÉTÉ EUROPÉENNE DES SATELLITES","ORBIT_TYPE":"Geosynchronous","OPERATIONAL_STATUS":"Operational","satInfo":{"lng":93.07635860161933,"lat":-1.3136671301867422,"elevation":-9.85651949315911,"azimuth":221.92364139838065,"range":42776.92799422698,"height":35778.45165515314,"velocity":3.075243986264189},"x":299,"y":15,"dx":-0.1650384792087433,"dy":3.0708122501114463},{"OBJECT_ID":"2009-058B","OBJECT_NAME":"THOR 6","NORAD_CAT_ID":"36033","OBJECT_TYPE":"PAYLOAD","PERIOD":"1436.099","INCLINATION":"0.0228","APOGEE":"35793.901","PERIGEE":"35779.396","ECCENTRICITY":"0.000172","MEAN_MOTION":"1.002716","TLE_LINE1":"1 36033U 09058B   16239.13452203 -.00000038  00000-0  00000+0 0  9999","TLE_LINE2":"2 36033   0.0228 209.8796 0001720 314.8671 217.6354  1.00271600 25046","LAUNCH_DATE":"2009-10-29","LAUNCH_SITE":"FRENCH GUIANA","OWNER":"NORWAY","ORBIT_TYPE":"Geosynchronous","OPERATIONAL_STATUS":"Operational","satInfo":{"lng":19.730966761589897,"lat":-0.6141512727994958,"elevation":-9.16903174560657,"azimuth":295.26903323841015,"range":42729.509880395235,"height":35807.81914668972,"velocity":3.0737323781557864},"x":100,"y":-269,"dx":2.8932680691034776,"dy":1.037704492054198},{"OBJECT_ID":"2009-064A","OBJECT_NAME":"INTELSAT 14","NORAD_CAT_ID":"36097","OBJECT_TYPE":"PAYLOAD","PERIOD":"1436.079","INCLINATION":"0.0145","APOGEE":"35795.616","PERIGEE":"35776.887","ECCENTRICITY":"0.0002221","MEAN_MOTION":"1.00273015","TLE_LINE1":"1 36097U 09064A   16237.20026821 -.00000297 +00000-0 +00000-0 0  9993","TLE_LINE2":"2 36097 000.0145 113.7955 0002221 052.1829 194.0243 01.00273015024796","LAUNCH_DATE":"2009-11-23","LAUNCH_SITE":"AIR FORCE EASTERN TEST RANGE","OWNER":"INTERNATIONAL TELECOMMUNICATIONS SATELLITE ORGANIZATION (INTELSAT)","ORBIT_TYPE":"Geosynchronous","OPERATIONAL_STATUS":"Operational","satInfo":{"lng":-45.07005171983262,"lat":-2.0380549025089576,"elevation":-10.557879239298066,"azimuth":0.07005171983259459,"range":42872.188904158415,"height":35794.889771936745,"velocity":3.0740767708821384},"x":-216,"y":-202,"dx":2.171041268239013,"dy":-2.176356543602241},{"OBJECT_ID":"2009-065A","OBJECT_NAME":"EUTE 36B (EUTE W7)","NORAD_CAT_ID":"36101","OBJECT_TYPE":"PAYLOAD","PERIOD":"1436.113","INCLINATION":"0.0672","APOGEE":"35803.472","PERIGEE":"35770.381","ECCENTRICITY":"0.0003924","MEAN_MOTION":"1.00270607","TLE_LINE1":"1 36101U 09065A   16238.79146571  .00000128  00000-0  00000+0 0  9991","TLE_LINE2":"2 36101   0.0672 356.9893 0003924 166.8562 131.4806  1.00270607 24881","LAUNCH_DATE":"2009-11-24","LAUNCH_SITE":"TYURATAM MISSILE AND SPACE COMPLEX","OWNER":"EUROPEAN TELECOMMUNICATIONS SATELLITE ORGANIZATION (EUTELSAT)","ORBIT_TYPE":"Geosynchronous","OPERATIONAL_STATUS":"Operational","satInfo":{"lng":92.80218933396968,"lat":0.12701471806483758,"elevation":-8.45538819095579,"azimuth":222.19781066603036,"range":42599.5478624354,"height":35758.48495584578,"velocity":3.0759950318837412},"x":299,"y":14,"dx":-0.15037904587838055,"dy":3.072316972373483},{"OBJECT_ID":"2009-067A","OBJECT_NAME":"INTELSAT 15","NORAD_CAT_ID":"36106","OBJECT_TYPE":"PAYLOAD","PERIOD":"1436.105","INCLINATION":"0.06","APOGEE":"35795.803","PERIGEE":"35777.731","ECCENTRICITY":"0.0002143","MEAN_MOTION":"1.00271177","TLE_LINE1":"1 36106U 09067A   16238.86297331 -.00000213 +00000-0 +00000-0 0  9994","TLE_LINE2":"2 36106 000.0600 285.3481 0002143 236.4673 208.5442 01.00271177005383","LAUNCH_DATE":"2009-11-30","LAUNCH_SITE":"TYURATAM MISSILE AND SPACE COMPLEX","OWNER":"INTERNATIONAL TELECOMMUNICATIONS SATELLITE ORGANIZATION (INTELSAT)","ORBIT_TYPE":"Geosynchronous","OPERATIONAL_STATUS":"Operational","satInfo":{"lng":65.35439308555658,"lat":-0.2610145861214316,"elevation":-8.829124601191724,"azimuth":249.64560691444345,"range":42667.799670633496,"height":35784.50712619303,"velocity":3.0747843895107594},"x":272,"y":-119,"dx":1.2821986314713625,"dy":2.794685261604966},{"OBJECT_ID":"2009-075A","OBJECT_NAME":"DIRECTV 12","NORAD_CAT_ID":"36131","OBJECT_TYPE":"PAYLOAD","PERIOD":"1436.096","INCLINATION":"0.0409","APOGEE":"35787.318","PERIGEE":"35785.859","ECCENTRICITY":"1.73e-05","MEAN_MOTION":"1.00271813","TLE_LINE1":"1 36131U 09075A   16238.38191622 -.00000129  00000-0  00000+0 0  9999","TLE_LINE2":"2 36131   0.0409 293.8366 0000173 238.7565 196.1552  1.00271813 24461","LAUNCH_DATE":"2009-12-29","LAUNCH_SITE":"TYURATAM MISSILE AND SPACE COMPLEX","OWNER":"UNITED STATES OF AMERICA","ORBIT_TYPE":"Geosynchronous","OPERATIONAL_STATUS":"Operational","satInfo":{"lng":-105.07799772357524,"lat":0.2906804259720828,"elevation":-8.289704045906678,"azimuth":60.077997723575194,"range":42609.86767655654,"height":35787.07266581514,"velocity":3.0746805758856857},"x":-294,"y":74,"dx":-0.799828145849287,"dy":-2.9688273073447746},{"OBJECT_ID":"2010-001A","OBJECT_NAME":"BEIDOU G1","NORAD_CAT_ID":"36287","OBJECT_TYPE":"PAYLOAD","PERIOD":"1436.090","INCLINATION":"1.5246","APOGEE":"35805.425","PERIGEE":"35767.502","ECCENTRICITY":"0.0004497","MEAN_MOTION":"1.0027226","TLE_LINE1":"1 36287U 10001A   16238.85035899 -.00000310 +00000-0 +10000-3 0  9994","TLE_LINE2":"2 36287 001.5246 002.0197 0004497 212.4764 206.2152 01.00272260024256","LAUNCH_DATE":"2010-01-16","LAUNCH_SITE":"Xichang Space Center, China","OWNER":"PEOPLES REPUBLIC OF CHINA","ORBIT_TYPE":"Geosynchronous","OPERATIONAL_STATUS":"Operational","satInfo":{"lng":121.88109325210928,"lat":0.3155275563321938,"elevation":-8.269999820779132,"azimuth":193.11890674789072,"range":42584.560987191806,"height":35764.23567494534,"velocity":3.0756006125304016},"x":254,"y":150,"dx":-1.6244035543590145,"dy":2.611634013483356},{"OBJECT_ID":"2010-002A","OBJECT_NAME":"RADUGA 1M-2","NORAD_CAT_ID":"36358","OBJECT_TYPE":"PAYLOAD","PERIOD":"1436.055","INCLINATION":"0.038","APOGEE":"35791.936","PERIGEE":"35779.650","ECCENTRICITY":"0.0001457","MEAN_MOTION":"1.00274651","TLE_LINE1":"1 36358U 10002A   16238.72552757 -.00000212  00000-0  00000+0 0  9993","TLE_LINE2":"2 36358   0.0380 261.9295 0001457 339.8040  78.8721  1.00274651 24089","LAUNCH_DATE":"2010-01-28","LAUNCH_SITE":"TYURATAM MISSILE AND SPACE COMPLEX","OWNER":"COMMONWEALTH OF INDEPENDENT STATES","ORBIT_TYPE":"Geosynchronous","OPERATIONAL_STATUS":"Operational","satInfo":{"lng":65.26374265927247,"lat":-1.1295386358879844,"elevation":-9.674509573420572,"azimuth":249.73625734072755,"range":42770.25484362356,"height":35792.03956664794,"velocity":3.074270012947535},"x":272,"y":-120,"dx":1.286403394957972,"dy":2.792185956907068},{"OBJECT_ID":"2010-006A","OBJECT_NAME":"INTELSAT 16","NORAD_CAT_ID":"36397","OBJECT_TYPE":"PAYLOAD","PERIOD":"1436.091","INCLINATION":"0.0514","APOGEE":"35792.920","PERIGEE":"35780.068","ECCENTRICITY":"0.0001524","MEAN_MOTION":"1.00272151","TLE_LINE1":"1 36397U 10006A   16239.38667722 -.00000314  00000-0  00000+0 0  9995","TLE_LINE2":"2 36397   0.0514 289.2774 0001524 236.0477 250.8303  1.00272151 23825","LAUNCH_DATE":"2010-02-12","LAUNCH_SITE":"TYURATAM MISSILE AND SPACE COMPLEX","OWNER":"INTERNATIONAL TELECOMMUNICATIONS SATELLITE ORGANIZATION (INTELSAT)","ORBIT_TYPE":"Geosynchronous","OPERATIONAL_STATUS":"Operational","satInfo":{"lng":-65.70024743697428,"lat":1.718118087505301,"elevation":-6.888940399023363,"azimuth":20.700247436974266,"range":42467.35888253651,"height":35801.57292650016,"velocity":3.0739903278946312},"x":-278,"y":-118,"dx":1.264979058974909,"dy":-2.801650320140737}]